C/2015 P3 (SWAN),e,58.1966,88.0033,133.1303,267.3022,0.0002255,0.99729380,0.0000,07/27.3032/2015,2000,g 15.5,4.0
# From MPC 99819
P/2015 P4 (PANSTARRS),e,8.7179,104.7683,280.5777,6.050929,0.0662172,0.58427876,108.3826,07/13.0/2020,2000,g 14.0,4.0
# From MPC102952
P/2015 PD229 (Cameron-ISON),e,2.0261,342.6410,352.3778,7.180029,0.0512289,0.32806798,91.9094,07/13.0/2020,2000,g 11.5,2.0
# From MPC 99819
P/2015 Q1 (Scotti),e,22.3918,202.9905,199.8582,3.471370,0.1523887,0.47852965,271.5167,07/13.0/2020,2000,g 14.0,4.0
# From MPC 96867
P/2015 Q2 (Pimentel),e,146.4783,228.3906,244.4387,7.345615,0.0495065,0.75107384,87.7207,07/13.0/2020,2000,g 15.5,4.0
# From MPC 98562
P/2015 R1 (PANSTARRS),e,22.6753,48.4619,300.3937,5.880814,0.0691111,0.63385622,127.3511,07/13.0/2020,2000,g 14.0,4.0
# From MPC 95734
P/2015 R2 (PANSTARRS),e,15.4756,168.6059,149.7241,4.489053,0.1036268,0.45271891,192.5990,07/13.0/2020,2000,g 14.5,4.0
# From MPC117068
C/2015 T2 (PANSTARRS),e,124.5492,51.0406,30.6607,2299,0.0000089,0.99698364,0.0000,05/18.6661/2017,2000,g  8.0,4.0
# From MPC 96280
P/2015 T3 (PANSTARRS),e,13.0937,120.5019,178.6330,4.326181,0.1095335,0.50818108,359.9227,12/21.0/2014,2000,g 14.0,4.0
# From MPC102953
C/2015 T4 (PANSTARRS),e,87.9732,251.8082,270.0640,80.04736,0.0013762,0.97128832,0.0000,06/17.1865/2016,2000,g 11.0,4.0
# From MPC102097
C/2015 T5 (Sheppard-Tholen),e,11.0501,311.0722,61.8136,28.10573,0.0066147,0.66796845,10.8046,07/13.0/2020,2000,g  7.5,4.0
# From MPC102953
P/2015 TO19 (Lemmon-PANSTARRS),e,6.4995,321.6491,89.1620,4.557059,0.1013158,0.35785499,161.1714,07/13.0/2020,2000,g 14.0,4.0
# From MPC110080
P/2015 TP200 (LINEAR),e,8.7750,6.9873,82.6792,7.279434,0.0501831,0.53486103,67.9869,07/13.0/2020,2000,g 11.0,4.0
# From MPC101097
C/2015 TQ209 (LINEAR),e,11.3029,223.3587,282.1768,636.1973,0.0000614,0.99777387,0.0000,08/25.8655/2016,2000,g 10.5,4.0
# From MPC115881
C/2015 V1 (PANSTARRS),e,139.2237,197.1900,179.6197,3117,0.0000057,0.99863065,0.0000,12/17.1476/2017,2000,g  6.5,4.0
# From MPC112390
C/2015 V2 (Johnson),h,06/12.0993/2017,49.8675,69.8705,164.9929,1.001874,1.642401,2000,5.0,4.0
# From MPC102953
C/2015 V3 (PANSTARRS),e,86.2482,2.2400,0.7163,629.0441,0.0000625,0.99327252,0.0000,11/24.0022/2015,2000,g  9.0,4.0
# From MPC104791
C/2015 V4 (PANSTARRS),e,60.7739,179.9223,307.0226,18.49137,0.0123951,0.70457270,17.5321,07/13.0/2020,2000,g  8.5,4.0
# From MPC115881
C/2015 VL62 (Lemmon-Yeung-PANSTARRS),h,08/27.9579/2017,165.8153,95.0911,128.7469,1.001109,2.715454,2000,8.0,4.0
# From MPC102098
C/2015 WZ (PANSTARRS),e,134.5890,40.1586,66.6970,146.4416,0.0005562,0.99058223,0.0000,04/13.8546/2016,2000,g 15.0,4.0
# From MPC109142
C/2015 W1 (Gibbs),e,87.3643,114.3163,48.1877,5628,0.0000023,0.99960147,0.0000,05/14.4946/2016,2000,g 13.0,4.0
# From MPC101098
P/2015 W2 (Catalina),e,11.6070,294.2583,117.5267,7.298680,0.0499848,0.63354345,87.3625,07/13.0/2020,2000,g 13.0,4.0
# From MPC101098
P/2015 X1 (PANSTARRS),e,12.1517,161.7732,218.9627,3.631089,0.1424455,0.41894844,247.9825,07/13.0/2020,2000,g 16.0,4.0
# From MPEC 2020-AA5
C/2015 XY1 (Lemmon),h,04/28.2214/2018,148.8558,281.6257,196.2574,1.003459,7.924986,2000,5.5,4.0
# From MPC100281
C/2015 X2 (Catalina),e,72.0731,101.0989,42.3489,15.80048,0.0156927,0.87805886,26.1860,07/13.0/2020,2000,g 16.0,4.0
# From MPC 97498
P/2015 X3 (PANSTARRS),e,24.3836,77.3272,306.6518,5.010815,0.0878702,0.43847671,158.3041,07/13.0/2020,2000,g 15.0,4.0
# From MPC109142
C/2015 X4 (Elenin),e,29.5029,262.6141,176.2339,17.94689,0.0129634,0.81110523,22.2278,07/13.0/2020,2000,g 10.0,4.0
# From MPC119995
C/2015 X5 (PANSTARRS),h,12/29.8432/2017,124.3082,122.3468,27.6831,1.002451,6.798528,2000,7.5,4.0
# From MPC115881
P/2015 X6 (PANSTARRS),e,4.5648,106.9465,329.8804,2.752790,0.2157965,0.17241750,339.2478,07/13.0/2020,2000,g 16.0,4.0
# From MPC109143
C/2015 X7 (ATLAS),e,57.5611,139.9227,348.4255,153554,0.0000000,0.99997601,0.0000,07/29.3483/2016,2000,g  9.0,4.0
# From MPC107048
C/2015 X8 (NEOWISE),e,155.1928,191.1571,20.4075,19.75649,0.0112238,0.94004849,19.3459,07/13.0/2020,2000,g 16.0,4.0
# From MPC109143
C/2015 Y1 (LINEAR),e,71.1663,135.8169,24.6810,249.6138,0.0002499,0.98991799,0.0000,05/13.9601/2016,2000,g 12.0,4.0
# From MPC105543
C/2015 YG1 (NEOWISE),e,57.2869,350.5531,102.4863,16.99868,0.0140631,0.87851949,24.6143,07/13.0/2020,2000,g 13.0,4.0
# From MPC119995
C/2016 A1 (PANSTARRS),h,11/22.8226/2017,121.2052,128.2067,10.2686,1.001701,5.324439,2000,6.0,4.0
# From MPC100282
P/2016 A2 (Christensen),e,26.4069,291.6142,141.5835,4.750048,0.0952044,0.27096054,176.1015,07/13.0/2020,2000,g 11.5,4.0
# From MPC115881
P/2016 A3 (PANSTARRS),e,8.5107,187.2853,340.9251,7.890333,0.0444694,0.38770876,52.0499,07/13.0/2020,2000,g 10.0,4.0
# From MPC109143
C/2016 A5 (PANSTARRS),e,40.2406,136.1861,321.4930,640.1626,0.0000609,0.99540391,0.0000,06/26.7373/2015,2000,g 13.5,4.0
# From MPC109143
C/2016 A6 (PANSTARRS),e,120.9354,300.3784,141.0482,205.9861,0.0003334,0.98832863,0.0000,11/06.4696/2015,2000,g 15.0,4.0
# From MPC102098
P/2016 A7 (PANSTARRS),e,16.6254,221.4817,352.6315,5.031165,0.0873376,0.56546145,139.7442,07/13.0/2020,2000,g 16.0,4.0
# From MPC106345
C/2016 A8 (LINEAR),e,148.2428,111.3310,130.3798,34.28049,0.0049106,0.94495488,6.9417,07/13.0/2020,2000,g 12.0,4.0
# From MPC107048
C/2016 B1 (NEOWISE),e,50.4621,231.9863,8.6798,442.9115,0.0001057,0.99274299,0.0000,12/04.7529/2016,2000,g  9.5,4.0
# From MPC109143
P/2016 BA14 (PANSTARRS),e,18.8951,180.5331,351.9023,3.024437,0.1873860,0.66521955,296.4140,07/13.0/2020,2000,g 21.0,4.0
# From MPC110494
C/2016 C1 (PANSTARRS),h,02/18.8732/2016,56.2234,181.8078,328.7604,1.002226,8.466303,2000,5.5,4.0
# From MPC101098
C/2016 C2 (NEOWISE),e,38.0711,24.4250,214.5531,65.98572,0.0018388,0.97625082,0.0000,04/19.4806/2016,2000,g 16.0,4.0
# From MPC110494
C/2016 E1 (PANSTARRS),h,06/04.2719/2017,131.8905,233.0652,47.4708,1.005908,8.179838,2000,6.5,4.0
# From MPC 99821
C/2016 E2 (Kowalski),e,135.9014,186.8713,321.9438,140.1719,0.0005939,0.99232624,0.0000,02/06.9403/2016,2000,g 20.0,4.0
# From MPC102098
P/2016 G1 (PANSTARRS),e,10.9689,204.0592,111.2846,2.582515,0.2374870,0.21099224,300.0533,07/13.0/2020,2000,g 14.0,4.0
# From MPEC 2017-D91
P/2016 J1-A (PANSTARRS),e,14.3249,199.8238,46.8898,3.174046,0.1742948,0.22817922,257.6348,07/13.0/2020,2000,g 16.5,4.0
# From MPEC 2017-A77
P/2016 J1-B (PANSTARRS),e,14.3276,199.8287,46.7809,3.173675,0.1743253,0.22803021,257.7546,07/13.0/2020,2000,g 17.0,4.0
# From MPC101099
C/2016 J2 (Denneau),e,130.3350,186.3771,318.6450,639.3274,0.0000610,0.99762139,0.0000,04/12.2273/2016,2000,g 17.0,4.0
# From MPC102099
C/2016 KA (Catalina),e,104.6882,317.5072,63.2024,7300,0.0000016,0.99925941,0.0000,02/02.3923/2016,2000,g  8.5,4.0
# From MPC104792
C/2016 K1 (LINEAR),e,90.9274,325.6226,18.2864,75467,0.0000000,0.99996960,0.0000,07/13.3522/2016,2000,g 13.0,4.0
# From MPC119995
C/2016 M1 (PANSTARRS),e,90.9985,92.2046,209.8817,4610,0.0000031,0.99952019,0.0000,08/10.3185/2018,2000,g  5.0,4.0
# From MPC115881
C/2016 N4 (MASTER),e,72.6013,353.9998,55.9381,2427,0.0000082,0.99868221,0.0000,09/16.4918/2017,2000,g  8.5,4.0
# From MPC119995
C/2016 N6 (PANSTARRS),e,105.8409,298.9907,162.7548,1679,0.0000143,0.99841191,0.0000,07/18.0908/2018,2000,g  7.0,4.0
# From MPC102099
P/2016 P1 (PANSTARRS),e,24.4556,319.5641,270.0629,3.194547,0.1726196,0.28932157,302.6667,07/13.0/2020,2000,g 15.0,4.0
# From MPC102099
C/2016 P4 (PANSTARRS),e,29.8807,320.7319,356.1763,400.2670,0.0001231,0.98527564,0.0000,10/18.1242/2016,2000,g 10.5,4.0
# From MPC118093
C/2016 Q2 (PANSTARRS),e,109.3890,322.2984,84.5039,24409,0.0000003,0.99970985,0.0000,05/11.5771/2021,2000,g  6.0,4.0
# From MPC102955
C/2016 Q4 (Kowalski),e,7.2574,271.2856,99.4036,16.90506,0.0141801,0.58086905,12.7346,07/13.0/2020,2000,g  7.0,4.0
# From MPC119995
C/2016 R2 (PANSTARRS),e,58.2259,80.5684,33.1786,548.7121,0.0000767,0.99525620,0.0000,05/09.2830/2018,2000,g  7.0,4.0
# From MPC102099
C/2016 R3 (Borisov),e,53.0415,78.6739,118.1973,199.8693,0.0003488,0.99773767,0.0000,10/10.4039/2016,2000,g 18.0,4.0
# From MPC109144
P/2016 R4 (Gibbs),e,10.8701,168.2801,174.0017,5.331443,0.0800639,0.47607850,116.2993,07/13.0/2020,2000,g 12.5,4.0
# From MPC105543
P/2016 S1 (PANSTARRS),e,94.6576,227.5273,273.2731,8.279088,0.0413743,0.71009896,50.2619,07/13.0/2020,2000,g 12.0,4.0
# From MPC105238
C/2016 T1 (Matheny),e,129.8478,56.2895,137.4209,123.9614,0.0007141,0.98141203,0.0000,02/01.2827/2017,2000,g 14.5,4.0
# From MPC107685
C/2016 T2 (Matheny),e,81.3774,339.1603,92.2394,99.13462,0.0009985,0.98077088,0.0000,12/29.0737/2016,2000,g 14.5,4.0
# From MPC110082
C/2016 T3 (PANSTARRS),e,22.6777,271.7404,194.6653,132.9524,0.0006429,0.98007016,0.0000,09/06.5215/2017,2000,g 10.5,4.0
# From MPC103847
C/2016 U1 (NEOWISE),h,01/13.9897/2017,46.3739,61.4849,162.8322,1.000404,0.322230,2000,17.0,4.0
# From MPC106345
C/2016 VZ18 (PANSTARRS),e,23.9813,98.9210,36.4204,167.9871,0.0004527,0.99455724,0.0000,03/05.9542/2017,2000,g 19.5,4.0
# From MPC106345
P/2016 WM48 (Lemmon),e,117.4276,59.9020,36.0823,8.167558,0.0422246,0.78402941,52.1430,07/13.0/2020,2000,g 15.0,4.0
# From MPC119995
C/2016 X1 (Lemmon),e,26.4541,256.4187,224.5164,1348,0.0000199,0.99439042,0.0000,04/28.9684/2019,2000,g  6.0,4.0
# From MPC108594
C/2017 A1 (PANSTARRS),e,49.7913,121.0460,2.0475,76.85546,0.0014628,0.97017900,0.0000,05/16.3606/2017,2000,g 13.0,4.0
# From MPC108594
C/2017 A3 (Elenin),e,98.5365,97.9069,304.0335,43.47949,0.0034378,0.91148371,4.3289,07/13.0/2020,2000,g  9.5,4.0
# From MPC114598
C/2017 AB5 (PANSTARRS),e,32.4363,42.6545,78.3482,2573,0.0000075,0.99641961,0.0000,02/16.0333/2018,2000,g  5.5,4.0
# From MPC119995
C/2017 B3 (LINEAR),h,02/02.6375/2019,54.1735,2.1796,284.7836,1.001877,3.922156,2000,6.0,4.0
# From MPC103847
P/2017 B4 (PANSTARRS),e,20.0584,121.4578,11.0197,4.410520,0.1064068,0.36495152,359.9130,01/05.0/2017,2000,g 14.5,4.0
# From MPC104793
C/2017 C1 (NEOWISE),e,65.7509,357.5133,110.1093,20.60540,0.0105374,0.92717385,13.3990,07/13.0/2020,2000,g 18.0,4.0
# From MPC107685
